[{"OBJECT_NAME":"STARLINK-30614","OBJECT_ID":"2023-161B","EPOCH":"2026-03-09T22:59:31.957728","MEAN_MOTION":15.30191937,"ECCENTRICITY":8.944e-5,"INCLINATION":53.1587,"RA_OF_ASC_NODE":164.221,"ARG_OF_PERICENTER":96.707,"MEAN_ANOMALY":263.4033,"EPHEMERIS_TYPE":0,"CLASSIFICATION_TYPE":"U","NORAD_CAT_ID":58098,"ELEMENT_SET_NO":999,"REV_AT_EPOCH":13446,"BSTAR":0.00012880452,"MEAN_MOTION_DOT":3.457e-5,"MEAN_MOTION_DDOT":0},{"OBJECT_NAME":"DELTA 1 R\/B(1)","OBJECT_ID":"1977-118B","EPOCH":"2026-03-09T06:43:16.851360","MEAN_MOTION":13.47350406,"ECCENTRICITY":0.0814229,"INCLINATION":28.6551,"RA_OF_ASC_NODE":189.0759,"ARG_OF_PERICENTER":117.268,"MEAN_ANOMALY":251.3149,"EPHEMERIS_TYPE":0,"CLASSIFICATION_TYPE":"U","NORAD_CAT_ID":10517,"ELEMENT_SET_NO":999,"REV_AT_EPOCH":33790,"BSTAR":0.00036454259,"MEAN_MOTION_DOT":2.074e-5,"MEAN_MOTION_DDOT":0}]
